ONEWEB-0275             
1 48993U 21060AC  26005.13995112  .00000178  00000+0  43079-3 0  9997
2 48993  87.9040 261.2406 0001567  71.2666 288.8635 13.16593780218106
ONEWEB-0276             
1 48994U 21060AD  26005.17319877  .00000140  00000+0  33376-3 0  9998
2 48994  87.9043 261.2332 0001315  73.5991 286.5284 13.16593590218121
ONEWEB-0277             
1 48995U 21060AE  26005.10986626  .00000082  00000+0  18183-3 0  9998
2 48995  87.9033 261.2680 0001556  72.8939 287.2362 13.16595246218101
ONEWEB-0278             
1 48996U 21060AF  26005.10037492  .00000072  00000+0  15467-3 0  9998
2 48996  87.9042 261.2444 0001396  82.2759 277.8530 13.16594311218235
ONEWEB-0279             
1 48997U 21060AG  26005.10828919  .00000058  00000+0  11920-3 0  9995
2 48997  87.9045 261.2408 0001600  65.1400 294.9897 13.16594517218166
ONEWEB-0280             
1 48998U 21060AH  26005.12331041 -.00000125  00000+0 -36127-3 0  9996
2 48998  87.9045 261.2439 0001155  72.3127 287.8130 13.16594189218102
ONEWEB-0281             
1 48999U 21060AJ  26005.12887571  .00000132  00000+0  31134-3 0  9990
2 48999  87.9042 261.2379 0001632  74.4272 285.7039 13.16594501218177
ONEWEB-0282             
1 49000U 21060AK  26005.08295273  .00000107  00000+0  24560-3 0  9998
2 49000  87.9045 261.2575 0001372  71.6761 288.4519 13.16592958218149
